{
    "links": {
        "self": "http://www.neowsapp.com/rest/v1/neo/3601403?api_key=iIulBulltgU6a56xZRHN4H3l9WmuAYTsLGpBGhQ2"
    },
    "id": "3601403",
    "neo_reference_id": "3601403",
    "name": "(2012 FG)",
    "designation": "2012 FG",
    "nasa_jpl_url": "http://ssd.jpl.nasa.gov/sbdb.cgi?sstr=3601403",
    "absolute_magnitude_h": 26.2,
    "estimated_diameter": {
        "kilometers": {
            "estimated_diameter_min": 0.0152951935,
            "estimated_diameter_max": 0.0342010925
        },
        "meters": {
            "estimated_diameter_min": 15.2951935344,
            "estimated_diameter_max": 34.201092472
        },
        "miles": {
            "estimated_diameter_min": 0.0095039897,
            "estimated_diameter_max": 0.021251567
        },
        "feet": {
            "estimated_diameter_min": 50.1810827555,
            "estimated_diameter_max": 112.2083122258
        }
    },
    "is_potentially_hazardous_asteroid": false,
    "close_approach_data": [
        {
            "close_approach_date": "2009-03-27",
            "close_approach_date_full": "2009-Mar-27 15:40",
            "epoch_date_close_approach": 1238168400000,
            "relative_velocity": {
                "kilometers_per_second": "21.2671805401",
                "kilometers_per_hour": "76561.8499443906",
                "miles_per_hour": "47572.5561501687"
            },
            "miss_distance": {
                "astronomical": "0.1899749456",
                "lunar": "73.9002538384",
                "kilometers": "28419847.215125872",
                "miles": "17659274.1880541536"
            },
            "orbiting_body": "Earth"
        },
        {
            "close_approach_date": "2012-03-14",
            "close_approach_date_full": "2012-Mar-14 17:33",
            "epoch_date_close_approach": 1331746380000,
            "relative_velocity": {
                "kilometers_per_second": "15.679296627",
                "kilometers_per_hour": "56445.4678571982",
                "miles_per_hour": "35073.0186249352"
            },
            "miss_distance": {
                "astronomical": "0.0041994113",
                "lunar": "1.6335709957",
                "kilometers": "628222.985733931",
                "miles": "390359.6621170078"
            },
            "orbiting_body": "Earth"
        },
        {
            "close_approach_date": "2012-03-14",
            "close_approach_date_full": "2012-Mar-14 19:00",
            "epoch_date_close_approach": 1331751600000,
            "relative_velocity": {
                "kilometers_per_second": "16.6661596697",
                "kilometers_per_hour": "59998.1748107569",
                "miles_per_hour": "37280.5325650506"
            },
            "miss_distance": {
                "astronomical": "0.0062205363",
                "lunar": "2.4197886207",
                "kilometers": "930578.980737681",
                "miles": "578234.9655187578"
            },
            "orbiting_body": "Moon"
        }
    ],
    "orbital_data": {
        "orbit_id": "8",
        "orbit_determination_date": "2017-04-06 08:50:29",
        "first_observation_date": "2012-03-16",
        "last_observation_date": "2012-03-23",
        "data_arc_in_days": 7,
        "observations_used": 34,
        "orbit_uncertainty": "8",
        "minimum_orbit_intersection": ".0028017",
        "jupiter_tisserand_invariant": "3.472",
        "epoch_osculation": "2456006.5",
        "eccentricity": ".6353454241738021",
        "semi_major_axis": "2.085657594725532",
        "inclination": "2.220972053090505",
        "ascending_node_longitude": "178.256596025447",
        "orbital_period": "1100.177968294294",
        "perihelion_distance": ".7605445855233269",
        "perihelion_argument": "289.0633398776382",
        "aphelion_distance": "3.410770603927737",
        "perihelion_time": "2455958.616342225891",
        "mean_anomaly": "15.66848027815451",
        "mean_motion": ".3272197865933825",
        "equinox": "J2000",
        "orbit_class": {
            "orbit_class_type": "APO",
            "orbit_class_description": "Near-Earth asteroid orbits which cross the Earth’s orbit similar to that of 1862 Apollo",
            "orbit_class_range": "a (semi-major axis) > 1.0 AU; q (perihelion) < 1.017 AU"
        }
    },
    "is_sentry_object": false
}